STARLINK-2211
1 17778C 21017BJ  21326.12570587  .00000581  00000-0  38930-4 0  3268
2 17778  53.0299  53.2971 0001366  80.2859 331.6065 15.06406884    15
